[{"OBJECT_NAME":"WORLDVIEW-1 (WV-1)","OBJECT_ID":"2007-041A","EPOCH":"2026-04-27T06:53:28.697280","MEAN_MOTION":15.24329289,"ECCENTRICITY":0.0001937,"INCLINATION":97.3877,"RA_OF_ASC_NODE":237.7433,"ARG_OF_PERICENTER":195.2759,"MEAN_ANOMALY":164.8421,"EPHEMERIS_TYPE":0,"CLASSIFICATION_TYPE":"U","NORAD_CAT_ID":32060,"ELEMENT_SET_NO":999,"REV_AT_EPOCH":3512,"BSTAR":0.00035321087,"MEAN_MOTION_DOT":8.571e-5,"MEAN_MOTION_DDOT":0},{"OBJECT_NAME":"YAOGAN-3","OBJECT_ID":"2007-055A","EPOCH":"2026-04-27T07:31:53.616000","MEAN_MOTION":14.90584511,"ECCENTRICITY":0.00014847,"INCLINATION":97.8208,"RA_OF_ASC_NODE":147.6923,"ARG_OF_PERICENTER":97.5742,"MEAN_ANOMALY":262.5645,"EPHEMERIS_TYPE":0,"CLASSIFICATION_TYPE":"U","NORAD_CAT_ID":32289,"ELEMENT_SET_NO":999,"REV_AT_EPOCH":99828,"BSTAR":0.00018268042,"MEAN_MOTION_DOT":1.731e-5,"MEAN_MOTION_DDOT":0},{"OBJECT_NAME":"COSMO-SKYMED 2","OBJECT_ID":"2007-059A","EPOCH":"2026-04-27T07:48:53.413344","MEAN_MOTION":14.82160729,"ECCENTRICITY":0.00014089,"INCLINATION":97.8885,"RA_OF_ASC_NODE":301.6607,"ARG_OF_PERICENTER":92.4108,"MEAN_ANOMALY":267.7266,"EPHEMERIS_TYPE":0,"CLASSIFICATION_TYPE":"U","NORAD_CAT_ID":32376,"ELEMENT_SET_NO":999,"REV_AT_EPOCH":99446,"BSTAR":6.5104984e-5,"MEAN_MOTION_DOT":4.66e-6,"MEAN_MOTION_DDOT":0},{"OBJECT_NAME":"RADARSAT-2","OBJECT_ID":"2007-061A","EPOCH":"2026-04-27T07:24:51.893280","MEAN_MOTION":14.29982632,"ECCENTRICITY":0.0001246,"INCLINATION":98.5802,"RA_OF_ASC_NODE":124.9661,"ARG_OF_PERICENTER":84.2292,"MEAN_ANOMALY":275.9033,"EPHEMERIS_TYPE":0,"CLASSIFICATION_TYPE":"U","NORAD_CAT_ID":32382,"ELEMENT_SET_NO":999,"REV_AT_EPOCH":95868,"BSTAR":4.6261039e-5,"MEAN_MOTION_DOT":7.6e-7,"MEAN_MOTION_DDOT":0},{"OBJECT_NAME":"CARTOSAT-2A","OBJECT_ID":"2008-021A","EPOCH":"2026-04-27T07:29:57.610176","MEAN_MOTION":14.79173317,"ECCENTRICITY":0.00103008,"INCLINATION":97.7684,"RA_OF_ASC_NODE":167.7484,"ARG_OF_PERICENTER":278.8197,"MEAN_ANOMALY":81.1848,"EPHEMERIS_TYPE":0,"CLASSIFICATION_TYPE":"U","NORAD_CAT_ID":32783,"ELEMENT_SET_NO":999,"REV_AT_EPOCH":97128,"BSTAR":0.00014135512,"MEAN_MOTION_DOT":9.99e-6,"MEAN_MOTION_DDOT":0},{"OBJECT_NAME":"HUANJING 1A (HJ-1A)","OBJECT_ID":"2008-041A","EPOCH":"2026-04-27T06:09:18.208800","MEAN_MOTION":14.83870291,"ECCENTRICITY":0.00178543,"INCLINATION":97.6669,"RA_OF_ASC_NODE":105.0753,"ARG_OF_PERICENTER":309.6553,"MEAN_ANOMALY":50.3086,"EPHEMERIS_TYPE":0,"CLASSIFICATION_TYPE":"U","NORAD_CAT_ID":33320,"ELEMENT_SET_NO":999,"REV_AT_EPOCH":95085,"BSTAR":0.0002512182,"MEAN_MOTION_DOT":2.039e-5,"MEAN_MOTION_DDOT":0},{"OBJECT_NAME":"HUANJING 1B (HJ-1B)","OBJECT_ID":"2008-041B","EPOCH":"2026-04-27T06:29:33.584640","MEAN_MOTION":14.83225621,"ECCENTRICITY":0.00363372,"INCLINATION":97.6511,"RA_OF_ASC_NODE":108.4121,"ARG_OF_PERICENTER":353.2784,"MEAN_ANOMALY":6.7939,"EPHEMERIS_TYPE":0,"CLASSIFICATION_TYPE":"U","NORAD_CAT_ID":33321,"ELEMENT_SET_NO":999,"REV_AT_EPOCH":95086,"BSTAR":0.00023701099,"MEAN_MOTION_DOT":1.906e-5,"MEAN_MOTION_DDOT":0},{"OBJECT_NAME":"GEOEYE 1","OBJECT_ID":"2008-042A","EPOCH":"2026-04-27T06:11:19.464288","MEAN_MOTION":14.646767,"ECCENTRICITY":0.00035431,"INCLINATION":98.1248,"RA_OF_ASC_NODE":191.8319,"ARG_OF_PERICENTER":204.4352,"MEAN_ANOMALY":155.6683,"EPHEMERIS_TYPE":0,"CLASSIFICATION_TYPE":"U","NORAD_CAT_ID":33331,"ELEMENT_SET_NO":999,"REV_AT_EPOCH":94269,"BSTAR":0.00010321793,"MEAN_MOTION_DOT":5.02e-6,"MEAN_MOTION_DDOT":0},{"OBJECT_NAME":"THEOS","OBJECT_ID":"2008-049A","EPOCH":"2026-04-27T07:27:50.369760","MEAN_MOTION":14.20124806,"ECCENTRICITY":0.00013013,"INCLINATION":98.5611,"RA_OF_ASC_NODE":176.2371,"ARG_OF_PERICENTER":91.619,"MEAN_ANOMALY":268.5136,"EPHEMERIS_TYPE":0,"CLASSIFICATION_TYPE":"U","NORAD_CAT_ID":33396,"ELEMENT_SET_NO":999,"REV_AT_EPOCH":91074,"BSTAR":-1.0480068e-5,"MEAN_MOTION_DOT":-6.5e-7,"MEAN_MOTION_DDOT":0},{"OBJECT_NAME":"COSMO-SKYMED 3","OBJECT_ID":"2008-054A","EPOCH":"2026-04-27T06:35:29.592384","MEAN_MOTION":15.06624172,"ECCENTRICITY":0.00172348,"INCLINATION":97.836,"RA_OF_ASC_NODE":334.9958,"ARG_OF_PERICENTER":79.9051,"MEAN_ANOMALY":280.4119,"EPHEMERIS_TYPE":0,"CLASSIFICATION_TYPE":"U","NORAD_CAT_ID":33412,"ELEMENT_SET_NO":999,"REV_AT_EPOCH":94927,"BSTAR":0.00026602298,"MEAN_MOTION_DOT":3.89e-5,"MEAN_MOTION_DDOT":0},{"OBJECT_NAME":"YAOGAN-4","OBJECT_ID":"2008-061A","EPOCH":"2026-04-27T05:32:19.861152","MEAN_MOTION":14.8310267,"ECCENTRICITY":0.00130275,"INCLINATION":97.9289,"RA_OF_ASC_NODE":51.1273,"ARG_OF_PERICENTER":233.5726,"MEAN_ANOMALY":126.4287,"EPHEMERIS_TYPE":0,"CLASSIFICATION_TYPE":"U","NORAD_CAT_ID":33446,"ELEMENT_SET_NO":999,"REV_AT_EPOCH":93811,"BSTAR":0.00013288926,"MEAN_MOTION_DOT":1.03e-5,"MEAN_MOTION_DDOT":0},{"OBJECT_NAME":"GOSAT (IBUKI)","OBJECT_ID":"2009-002A","EPOCH":"2026-04-26T14:13:27.981408","MEAN_MOTION":14.67542544,"ECCENTRICITY":0.0001323,"INCLINATION":98.0822,"RA_OF_ASC_NODE":228.3364,"ARG_OF_PERICENTER":109.6365,"MEAN_ANOMALY":250.4982,"EPHEMERIS_TYPE":0,"CLASSIFICATION_TYPE":"U","NORAD_CAT_ID":33492,"ELEMENT_SET_NO":999,"REV_AT_EPOCH":92389,"BSTAR":9.3603e-5,"MEAN_MOTION_DOT":4.83e-6,"MEAN_MOTION_DDOT":0},{"OBJECT_NAME":"DEIMOS-1","OBJECT_ID":"2009-041A","EPOCH":"2026-04-27T07:33:50.734656","MEAN_MOTION":14.75181287,"ECCENTRICITY":0.00019378,"INCLINATION":97.7344,"RA_OF_ASC_NODE":276.7652,"ARG_OF_PERICENTER":46.2217,"MEAN_ANOMALY":313.9153,"EPHEMERIS_TYPE":0,"CLASSIFICATION_TYPE":"U","NORAD_CAT_ID":35681,"ELEMENT_SET_NO":999,"REV_AT_EPOCH":89938,"BSTAR":6.2097708e-5,"MEAN_MOTION_DOT":3.72e-6,"MEAN_MOTION_DDOT":0},{"OBJECT_NAME":"DUBAISAT-1","OBJECT_ID":"2009-041B","EPOCH":"2026-04-27T06:45:07.210944","MEAN_MOTION":14.75028729,"ECCENTRICITY":0.00094103,"INCLINATION":97.9972,"RA_OF_ASC_NODE":251.1213,"ARG_OF_PERICENTER":229.3453,"MEAN_ANOMALY":130.6939,"EPHEMERIS_TYPE":0,"CLASSIFICATION_TYPE":"U","NORAD_CAT_ID":35682,"ELEMENT_SET_NO":999,"REV_AT_EPOCH":89759,"BSTAR":0.00019184637,"MEAN_MOTION_DOT":1.241e-5,"MEAN_MOTION_DDOT":0},{"OBJECT_NAME":"OCEANSAT-2","OBJECT_ID":"2009-051A","EPOCH":"2026-04-27T07:14:00.768192","MEAN_MOTION":13.99649766,"ECCENTRICITY":0.00159983,"INCLINATION":98.2303,"RA_OF_ASC_NODE":109.2416,"ARG_OF_PERICENTER":22.7049,"MEAN_ANOMALY":337.4822,"EPHEMERIS_TYPE":0,"CLASSIFICATION_TYPE":"U","NORAD_CAT_ID":35931,"ELEMENT_SET_NO":999,"REV_AT_EPOCH":87221,"BSTAR":-8.9150237e-5,"MEAN_MOTION_DOT":-1.68e-6,"MEAN_MOTION_DDOT":0},{"OBJECT_NAME":"WORLDVIEW-2 (WV-2)","OBJECT_ID":"2009-055A","EPOCH":"2026-04-27T07:07:56.987904","MEAN_MOTION":14.37928859,"ECCENTRICITY":0.00046558,"INCLINATION":98.4691,"RA_OF_ASC_NODE":191.4638,"ARG_OF_PERICENTER":27.5954,"MEAN_ANOMALY":332.5479,"EPHEMERIS_TYPE":0,"CLASSIFICATION_TYPE":"U","NORAD_CAT_ID":35946,"ELEMENT_SET_NO":999,"REV_AT_EPOCH":86833,"BSTAR":6.0743977e-5,"MEAN_MOTION_DOT":1.4e-6,"MEAN_MOTION_DDOT":0}]
