WORLDVIEW-1 (WV-1)      
1 32060U 07041A   26117.28713770  .00008571  00000+0  35321-3 0  9992
2 32060  97.3877 237.7433 0001937 195.2759 164.8421 15.24329289 35123
YAOGAN-3                
1 32289U 07055A   26117.31381500  .00001731  00000+0  18268-3 0  9998
2 32289  97.8208 147.6923 0001484  97.5742 262.5645 14.90584511998287
COSMO-SKYMED 2          
1 32376U 07059A   26117.32561821  .00000466  00000+0  65105-4 0  9993
2 32376  97.8885 301.6607 0001408  92.4108 267.7266 14.82160729994466
RADARSAT-2              
1 32382U 07061A   26117.30893395  .00000076  00000+0  46261-4 0  9994
2 32382  98.5802 124.9661 0001246  84.2292 275.9033 14.29982632958682
CARTOSAT-2A             
1 32783U 08021A   26117.31247234  .00000999  00000+0  14136-3 0  9991
2 32783  97.7684 167.7484 0010300 278.8197  81.1848 14.79173317971289
HUANJING 1A (HJ-1A)     
1 33320U 08041A   26117.25646075  .00002039  00000+0  25122-3 0  9994
2 33320  97.6669 105.0753 0017854 309.6553  50.3086 14.83870291950855
HUANJING 1B (HJ-1B)     
1 33321U 08041B   26117.27052760  .00001906  00000+0  23701-3 0  9992
2 33321  97.6511 108.4121 0036337 353.2784   6.7939 14.83225621950860
GEOEYE 1                
1 33331U 08042A   26117.25786417  .00000502  00000+0  10322-3 0  9991
2 33331  98.1248 191.8319 0003543 204.4352 155.6683 14.64676700942699
THEOS                   
1 33396U 08049A   26117.31099965 -.00000065  00000+0 -10480-4 0  9993
2 33396  98.5611 176.2371 0001301  91.6190 268.5136 14.20124806910744
COSMO-SKYMED 3          
1 33412U 08054A   26117.27464806  .00003890  00000+0  26602-3 0  9992
2 33412  97.8360 334.9958 0017234  79.9051 280.4119 15.06624172949277
YAOGAN-4                
1 33446U 08061A   26117.23078543  .00001030  00000+0  13289-3 0  9993
2 33446  97.9289  51.1273 0013027 233.5726 126.4287 14.83102670938110
GOSAT (IBUKI)           
1 33492U 09002A   26116.59268497  .00000483  00000+0  93603-4 0  9997
2 33492  98.0822 228.3364 0001323 109.6365 250.4982 14.67542544923892
DEIMOS-1                
1 35681U 09041A   26117.31517054  .00000372  00000+0  62098-4 0  9990
2 35681  97.7344 276.7652 0001937  46.2217 313.9153 14.75181287899382
DUBAISAT-1              
1 35682U 09041B   26117.28133346  .00001241  00000+0  19185-3 0  9999
2 35682  97.9972 251.1213 0009410 229.3453 130.6939 14.75028729897590
OCEANSAT-2              
1 35931U 09051A   26117.30139778 -.00000168  00000+0 -89150-4 0  9994
2 35931  98.2303 109.2416 0015998  22.7049 337.4822 13.99649766872216
WORLDVIEW-2 (WV-2)      
1 35946U 09055A   26117.29718736  .00000140  00000+0  60744-4 0  9995
2 35946  98.4691 191.4638 0004655  27.5954 332.5479 14.37928859868337
